{
    "links": {
        "self": "http://www.neowsapp.com/rest/v1/neo/3753699?api_key=iIulBulltgU6a56xZRHN4H3l9WmuAYTsLGpBGhQ2"
    },
    "id": "3753699",
    "neo_reference_id": "3753699",
    "name": "(2016 LS1)",
    "designation": "2016 LS1",
    "nasa_jpl_url": "http://ssd.jpl.nasa.gov/sbdb.cgi?sstr=3753699",
    "absolute_magnitude_h": 26.3,
    "estimated_diameter": {
        "kilometers": {
            "estimated_diameter_min": 0.0146067964,
            "estimated_diameter_max": 0.0326617897
        },
        "meters": {
            "estimated_diameter_min": 14.6067964271,
            "estimated_diameter_max": 32.6617897446
        },
        "miles": {
            "estimated_diameter_min": 0.0090762397,
            "estimated_diameter_max": 0.020295089
        },
        "feet": {
            "estimated_diameter_min": 47.92256199,
            "estimated_diameter_max": 107.1581062656
        }
    },
    "is_potentially_hazardous_asteroid": false,
    "close_approach_data": [
        {
            "close_approach_date": "2016-05-27",
            "close_approach_date_full": "2016-May-27 10:46",
            "epoch_date_close_approach": 1464345960000,
            "relative_velocity": {
                "kilometers_per_second": "5.9496781247",
                "kilometers_per_hour": "21418.8412487477",
                "miles_per_hour": "13308.8349970344"
            },
            "miss_distance": {
                "astronomical": "0.031104974",
                "lunar": "12.099834886",
                "kilometers": "4653237.85680538",
                "miles": "2891387.928779044"
            },
            "orbiting_body": "Earth"
        }
    ],
    "orbital_data": {
        "orbit_id": "5",
        "orbit_determination_date": "2017-04-06 08:25:34",
        "first_observation_date": "2016-06-04",
        "last_observation_date": "2016-06-15",
        "data_arc_in_days": 11,
        "observations_used": 22,
        "orbit_uncertainty": "8",
        "minimum_orbit_intersection": ".0123556",
        "jupiter_tisserand_invariant": "4.143",
        "epoch_osculation": "2457545.5",
        "eccentricity": ".3920292627218234",
        "semi_major_axis": "1.679796922062943",
        "inclination": ".9388814616214133",
        "ascending_node_longitude": "215.2176761871501",
        "orbital_period": "795.2132332516243",
        "perihelion_distance": "1.021267373184219",
        "perihelion_argument": "11.07792826092078",
        "aphelion_distance": "2.338326470941666",
        "perihelion_time": "2457518.866555507155",
        "mean_anomaly": "12.05719373936817",
        "mean_motion": ".4527087640732049",
        "equinox": "J2000",
        "orbit_class": {
            "orbit_class_type": "AMO",
            "orbit_class_description": "Near-Earth asteroid orbits similar to that of 1221 Amor",
            "orbit_class_range": "1.017 AU < q (perihelion) < 1.3 AU"
        }
    },
    "is_sentry_object": false
}